start=new Date('2023-01-11T00:00:00.000Z').valueOf();
sats=[{"MEAN_ELEMENT_THEORY":"SGP4","NORAD_CAT_ID":"51883","REV_AT_EPOCH":"4900","MEAN_MOTION":"15.08836537","SITE":"AFETR","EPHEMERIS_TYPE":"0","MEAN_MOTION_DOT":"-0.00000248","EPOCH":"2023-01-10T12:48:48.718944","RCS_SIZE":"LARGE","MEAN_ANOMALY":"321.5611","REF_FRAME":"TEME","TLE_LINE2":"2 51883  53.2160 140.3319 0002530  38.5561 321.5611 15.08836537 49001","DECAY_DATE":null,"BSTAR":"0.00000254640000","ECCENTRICITY":"0.00025300","INCLINATION":"53.2160","RA_OF_ASC_NODE":"140.3319","MEAN_MOTION_DDOT":"0.0000000000000","CENTER_NAME":"EARTH","PERIAPSIS":"538.006","FILE":"3739038","GP_ID":"222664411","PERIOD":"95.438","TIME_SYSTEM":"UTC","ELEMENT_SET_NO":"999","OBJECT_TYPE":"PAYLOAD","LAUNCH_DATE":"2022-03-03","CLASSIFICATION_TYPE":"U","COUNTRY_CODE":"US","ARG_OF_PERICENTER":"38.5561","TLE_LINE1":"1 51883U 22022AH  23010.53389721 -.00000248  00000-0  25464-5 0  9998","APOAPSIS":"541.506","OBJECT_NAME":"STARLINK-3576","SEMIMAJOR_AXIS":"6917.891","OBJECT_ID":"2022-022AH"},{"LAUNCH_DATE":"2022-03-03","CLASSIFICATION_TYPE":"U","COUNTRY_CODE":"US","ARG_OF_PERICENTER":"46.0237","TLE_LINE1":"1 51884U 22022AJ  23010.61022040  .00001642  00000-0  12122-3 0  9999","OBJECT_NAME":"STARLINK-3577","APOAPSIS":"541.201","SEMIMAJOR_AXIS":"6917.871","OBJECT_ID":"2022-022AJ","FILE":"3739038","PERIAPSIS":"538.271","GP_ID":"222664652","PERIOD":"95.437","TIME_SYSTEM":"UTC","ELEMENT_SET_NO":"999","OBJECT_TYPE":"PAYLOAD","DECAY_DATE":null,"BSTAR":"0.00012122000000","ECCENTRICITY":"0.00021180","INCLINATION":"53.2164","RA_OF_ASC_NODE":"139.9853","MEAN_MOTION_DDOT":"0.0000000000000","CENTER_NAME":"EARTH","NORAD_CAT_ID":"51884","MEAN_ELEMENT_THEORY":"SGP4","REV_AT_EPOCH":"4910","MEAN_MOTION":"15.08843156","SITE":"AFETR","EPHEMERIS_TYPE":"0","MEAN_MOTION_DOT":"0.00001642","EPOCH":"2023-01-10T14:38:43.042560","RCS_SIZE":"LARGE","MEAN_ANOMALY":"314.0929","REF_FRAME":"TEME","TLE_LINE2":"2 51884  53.2164 139.9853 0002118  46.0237 314.0929 15.08843156 49104"},{"OBJECT_ID":"2022-022AK","SEMIMAJOR_AXIS":"6917.898","OBJECT_NAME":"STARLINK-3584","APOAPSIS":"541.633","COUNTRY_CODE":"US","CLASSIFICATION_TYPE":"U","LAUNCH_DATE":"2022-03-03","TLE_LINE1":"1 51885U 22022AK  23010.52927416  .00002705  00000-0  18806-3 0  9997","ARG_OF_PERICENTER":"38.6496","TIME_SYSTEM":"UTC","OBJECT_TYPE":"PAYLOAD","ELEMENT_SET_NO":"999","FILE":"3739208","PERIAPSIS":"537.893","GP_ID":"222697150","PERIOD":"95.438","INCLINATION":"53.2161","ECCENTRICITY":"0.00027030","RA_OF_ASC_NODE":"140.3595","CENTER_NAME":"EARTH","MEAN_MOTION_DDOT":"0.0000000000000","DECAY_DATE":null,"BSTAR":"0.00018806000000","MEAN_ANOMALY":"321.4689","RCS_SIZE":"LARGE","EPOCH":"2023-01-10T12:42:09.287424","REF_FRAME":"TEME","TLE_LINE2":"2 51885  53.2161 140.3595 0002703  38.6496 321.4689 15.08834212 49002","NORAD_CAT_ID":"51885","MEAN_ELEMENT_THEORY":"SGP4","REV_AT_EPOCH":"4900","MEAN_MOTION":"15.08834212","MEAN_MOTION_DOT":"0.00002705","EPHEMERIS_TYPE":"0","SITE":"AFETR"},{"TLE_LINE2":"2 51886  53.2150 139.4297 0002668  62.9398 297.1866 15.08841944 49040","REF_FRAME":"TEME","RCS_SIZE":"LARGE","EPOCH":"2023-01-10T17:38:55.010688","MEAN_ANOMALY":"297.1866","SITE":"AFETR","EPHEMERIS_TYPE":"0","MEAN_MOTION_DOT":"0.00000797","MEAN_MOTION":"15.08841944","REV_AT_EPOCH":"4904","MEAN_ELEMENT_THEORY":"SGP4","NORAD_CAT_ID":"51886","MEAN_MOTION_DDOT":"0.0000000000000","CENTER_NAME":"EARTH","RA_OF_ASC_NODE":"139.4297","ECCENTRICITY":"0.00026680","INCLINATION":"53.2150","BSTAR":"0.00006819000000","DECAY_DATE":null,"ELEMENT_SET_NO":"999","OBJECT_TYPE":"PAYLOAD","TIME_SYSTEM":"UTC","PERIOD":"95.437","GP_ID":"222721652","FILE":"3739267","PERIAPSIS":"537.894","OBJECT_NAME":"STARLINK-3565","APOAPSIS":"541.585","OBJECT_ID":"2022-022AL","SEMIMAJOR_AXIS":"6917.874","ARG_OF_PERICENTER":"62.9398","TLE_LINE1":"1 51886U 22022AL  23010.73535892  .00000797  00000-0  68190-4 0  9995","LAUNCH_DATE":"2022-03-03","COUNTRY_CODE":"US","CLASSIFICATION_TYPE":"U"},{"CLASSIFICATION_TYPE":"U","COUNTRY_CODE":"US","LAUNCH_DATE":"2022-03-03","TLE_LINE1":"1 51887U 22022AM  23010.72431187  .00000957  00000-0  78249-4 0  9991","ARG_OF_PERICENTER":"61.3828","SEMIMAJOR_AXIS":"6917.865","OBJECT_ID":"2022-022AM","OBJECT_NAME":"STARLINK-3551","APOAPSIS":"541.345","PERIAPSIS":"538.116","FILE":"3739267","GP_ID":"222721403","PERIOD":"95.437","TIME_SYSTEM":"UTC","OBJECT_TYPE":"PAYLOAD","ELEMENT_SET_NO":"999","DECAY_DATE":null,"BSTAR":"0.00007824900000","INCLINATION":"53.2165","ECCENTRICITY":"0.00023340","RA_OF_ASC_NODE":"139.4803","CENTER_NAME":"EARTH","MEAN_MOTION_DDOT":"0.0000000000000","MEAN_ELEMENT_THEORY":"SGP4","NORAD_CAT_ID":"51887","REV_AT_EPOCH":"4903","MEAN_MOTION":"15.08844932","EPHEMERIS_TYPE":"0","MEAN_MOTION_DOT":"0.00000957","SITE":"AFETR","MEAN_ANOMALY":"298.7398","EPOCH":"2023-01-10T17:23:00.545568","RCS_SIZE":"LARGE","TLE_LINE2":"2 51887  53.2165 139.4803 0002334  61.3828 298.7398 15.08844932 49037","REF_FRAME":"TEME"},{"CENTER_NAME":"EARTH","MEAN_MOTION_DDOT":"0.0000000000000","INCLINATION":"53.2159","ECCENTRICITY":"0.00025570","RA_OF_ASC_NODE":"140.3337","DECAY_DATE":null,"BSTAR":"0.00007107400000","MEAN_ANOMALY":"323.7203","RCS_SIZE":"LARGE","EPOCH":"2023-01-10T12:47:26.607840","REF_FRAME":"TEME","TLE_LINE2":"2 51888  53.2159 140.3337 0002557  36.3963 323.7203 15.08838039 49016","MEAN_MOTION":"15.08838039","EPHEMERIS_TYPE":"0","MEAN_MOTION_DOT":"0.00000843","SITE":"AFETR","NORAD_CAT_ID":"51888","MEAN_ELEMENT_THEORY":"SGP4","REV_AT_EPOCH":"4901","OBJECT_ID":"2022-022AN","SEMIMAJOR_AXIS":"6917.886","APOAPSIS":"541.520","OBJECT_NAME":"STARLINK-3536","TLE_LINE1":"1 51888U 22022AN  23010.53294685  .00000843  00000-0  71074-4 0  9994","ARG_OF_PERICENTER":"36.3963","COUNTRY_CODE":"US","CLASSIFICATION_TYPE":"U","LAUNCH_DATE":"2022-03-03","ELEMENT_SET_NO":"999","OBJECT_TYPE":"PAYLOAD","TIME_SYSTEM":"UTC","GP_ID":"222665153","PERIOD":"95.438","PERIAPSIS":"537.982","FILE":"3739038"},{"GP_ID":"222722898","PERIOD":"95.437","PERIAPSIS":"537.631","FILE":"3739267","ELEMENT_SET_NO":"999","OBJECT_TYPE":"PAYLOAD","TIME_SYSTEM":"UTC","TLE_LINE1":"1 51889U 22022AP  23010.77951542  .00001252  00000-0  96758-4 0  9994","ARG_OF_PERICENTER":"61.8776","CLASSIFICATION_TYPE":"U","COUNTRY_CODE":"US","LAUNCH_DATE":"2022-03-03","OBJECT_ID":"2022-022AP","SEMIMAJOR_AXIS":"6917.865","OBJECT_NAME":"STARLINK-3547","APOAPSIS":"541.829","MEAN_MOTION":"15.08845023","EPHEMERIS_TYPE":"0","MEAN_MOTION_DOT":"0.00001252","SITE":"AFETR","NORAD_CAT_ID":"51889","MEAN_ELEMENT_THEORY":"SGP4","REV_AT_EPOCH":"4904","MEAN_ANOMALY":"298.2523","EPOCH":"2023-01-10T18:42:30.132288","RCS_SIZE":"LARGE","TLE_LINE2":"2 51889  53.2155 139.2355 0003034  61.8776 298.2523 15.08845023 49041","REF_FRAME":"TEME","DECAY_DATE":null,"BSTAR":"0.00009675800000","CENTER_NAME":"EARTH","MEAN_MOTION_DDOT":"0.0000000000000","INCLINATION":"53.2155","ECCENTRICITY":"0.00030340","RA_OF_ASC_NODE":"139.2355"},{"MEAN_MOTION_DDOT":"0.0000000000000","CENTER_NAME":"EARTH","RA_OF_ASC_NODE":"139.2035","ECCENTRICITY":"0.00024450","INCLINATION":"53.2149","BSTAR":"0.00014252000000","DECAY_DATE":null,"REF_FRAME":"TEME","TLE_LINE2":"2 51890  53.2149 139.2035 0002445  40.5124 319.6050 15.08853141 49040","RCS_SIZE":"LARGE","EPOCH":"2023-01-10T18:53:03.539328","MEAN_ANOMALY":"319.6050","SITE":"AFETR","MEAN_MOTION_DOT":"0.00001981","EPHEMERIS_TYPE":"0","MEAN_MOTION":"15.08853141","REV_AT_EPOCH":"4904","NORAD_CAT_ID":"51890","MEAN_ELEMENT_THEORY":"SGP4","APOAPSIS":"541.397","OBJECT_NAME":"STARLINK-3519","OBJECT_ID":"2022-022AQ","SEMIMAJOR_AXIS":"6917.840","ARG_OF_PERICENTER":"40.5124","TLE_LINE1":"1 51890U 22022AQ  23010.78684652  .00001981  00000-0  14252-3 0  9999","LAUNCH_DATE":"2022-03-03","COUNTRY_CODE":"US","CLASSIFICATION_TYPE":"U","OBJECT_TYPE":"PAYLOAD","ELEMENT_SET_NO":"999","TIME_SYSTEM":"UTC","PERIOD":"95.437","GP_ID":"222721153","PERIAPSIS":"538.014","FILE":"3739267"},{"APOAPSIS":"541.416","OBJECT_NAME":"STARLINK-3549","OBJECT_ID":"2022-022AR","SEMIMAJOR_AXIS":"6917.875","ARG_OF_PERICENTER":"63.9807","TLE_LINE1":"1 51891U 22022AR  23010.64335677  .00001574  00000-0  11698-3 0  9994","LAUNCH_DATE":"2022-03-03","CLASSIFICATION_TYPE":"U","COUNTRY_CODE":"US","OBJECT_TYPE":"PAYLOAD","ELEMENT_SET_NO":"999","TIME_SYSTEM":"UTC","GP_ID":"222721903","PERIOD":"95.437","PERIAPSIS":"538.064","FILE":"3739267","MEAN_MOTION_DDOT":"0.0000000000000","CENTER_NAME":"EARTH","ECCENTRICITY":"0.00024230","INCLINATION":"53.2155","RA_OF_ASC_NODE":"139.8441","DECAY_DATE":null,"BSTAR":"0.00011698000000","RCS_SIZE":"LARGE","EPOCH":"2023-01-10T15:26:26.024928","MEAN_ANOMALY":"296.1435","REF_FRAME":"TEME","TLE_LINE2":"2 51891  53.2155 139.8441 0002423  63.9807 296.1435 15.08841807 49073","MEAN_MOTION":"15.08841807","SITE":"AFETR","EPHEMERIS_TYPE":"0","MEAN_MOTION_DOT":"0.00001574","NORAD_CAT_ID":"51891","MEAN_ELEMENT_THEORY":"SGP4","REV_AT_EPOCH":"4907"},{"OBJECT_ID":"2022-022AS","SEMIMAJOR_AXIS":"6917.883","APOAPSIS":"541.824","OBJECT_NAME":"STARLINK-3587","CLASSIFICATION_TYPE":"U","COUNTRY_CODE":"US","LAUNCH_DATE":"2022-03-03","TLE_LINE1":"1 51892U 22022AS  23010.65070304  .00000477  00000-0  48131-4 0  9993","ARG_OF_PERICENTER":"36.4231","TIME_SYSTEM":"UTC","OBJECT_TYPE":"PAYLOAD","ELEMENT_SET_NO":"999","FILE":"3739267","PERIAPSIS":"537.672","PERIOD":"95.438","GP_ID":"222722153","RA_OF_ASC_NODE":"139.8221","INCLINATION":"53.2141","ECCENTRICITY":"0.00030010","CENTER_NAME":"EARTH","MEAN_MOTION_DDOT":"0.0000000000000","BSTAR":"0.00004813100000","DECAY_DATE":null,"TLE_LINE2":"2 51892  53.2141 139.8221 0003001  36.4231 323.6965 15.08839159 49020","REF_FRAME":"TEME","MEAN_ANOMALY":"323.6965","EPOCH":"2023-01-10T15:37:00.742656","RCS_SIZE":"LARGE","REV_AT_EPOCH":"4902","MEAN_ELEMENT_THEORY":"SGP4","NORAD_CAT_ID":"51892","EPHEMERIS_TYPE":"0","MEAN_MOTION_DOT":"0.00000477","SITE":"AFETR","MEAN_MOTION":"15.08839159"}];
